CAS-2T & KS-1Q          
1 41847U 16066G   21015.76209063  .00000064  00000-0  20728-4 0  9998
2 41847  98.6254  74.0844 0364613 316.1570  41.1196 14.38136202219939
NAYIF-1 (EO-88)         
1 42017U 17008BX  21016.47735064  .00001754  00000-0  68159-4 0  9996
2 42017  97.3363  86.7290 0004530 293.7780  66.2984 15.27369849218052
ZHUHAI-1 02 (CAS-4B)    
1 42759U 17034B   21016.51181498  .00000421  00000-0  38807-4 0  9996
2 42759  43.0184 296.2949 0011157 293.3767 235.4723 15.10044240198175
ZHUHAI-1 01 (CAS-4A)    
1 42761U 17034D   21016.51107466  .00000413  00000-0  38249-4 0  9993
2 42761  43.0191 295.4599 0011648 293.0553 235.8534 15.10124827198177
MAX VALIER SAT          
1 42778U 17036P   21015.58349555  .00000955  00000-0  43312-4 0  9994
2 42778  97.2780  69.0577 0011886   3.6810 356.4513 15.23138013198012
RADFXSAT (FOX-1B)       
1 43017U 17073E   21015.67996719  .00000573  00000-0  48983-4 0  9997
2 43017  97.7173 285.6562 0257326  78.7254 284.2756 14.79255328170539
FOX-1D (AO-92)          
1 43137U 18004AC  21015.77474595  .00001156  00000-0  49572-4 0  9992
2 43137  97.4246  91.2953 0009809  37.9245 322.2682 15.24716721167394
DIWATA-2B               
1 43678U 18084H   21016.45548289  .00000374  00000-0  42914-4 0  9992
2 43678  97.9044 141.1631 0009603 184.9098 175.2001 14.91700998120778
ES'HAIL 2               
1 43700U 18090A   21016.09771691  .00000138  00000-0  00000+0 0  9993
2 43700   0.0235  66.6465 0001553 274.0388 196.0218  1.00269163  8086
FOX-1CLIFF (AO-95)      
1 43770U 18099N   21016.47438925  .00000741  00000-0  72611-4 0  9993
2 43770  97.6841  89.8943 0014145 200.0276 160.0392 14.95169034115742
ITASAT 1                
1 43786U 18099AE  21016.15686681  .00000535  00000-0  53439-4 0  9997
2 43786  97.6861  90.1547 0014793 194.4722 165.6077 14.95486056115722
JY1SAT (JO-97)          
1 43803U 18099AX  21016.14415542  .00000827  00000-0  79334-4 0  9998
2 43803  97.6820  89.9160 0014869 194.5100 165.5696 14.95697738115726
PSAT2 (NO-104)          
1 44354U 19036R   21015.82149822  .00007490  00000-0  10094-3 0  9991
2 44354  28.5288  61.1601 0343660  66.8929 296.7501 15.08889636 85863
BRICSAT2 (NO-103)       
1 44355U 19036S   21015.75656450  .00013857  00000-0  16858-3 0  9992
2 44355  28.5280  37.0283 0302806 106.1165 257.2980 15.19524190 86105
JAISAT-1                
1 44419U 19038F   21015.65446896  .00000947  00000-0  56658-4 0  9994
2 44419  97.5684 341.1734 0022696 117.0073 243.3479 15.13296042 84681
DUCHIFAT-3              
1 44854U 19089C   21016.42782683  .00000468  00000-0  44042-4 0  9998
2 44854  36.9661 279.5446 0009002 338.6778  21.3591 14.99294998 60278
RS-44 & BREEZE-KM R/B   
1 44909U 19096E   21015.78104713  .00000020  00000-0  26366-4 0  9990
2 44909  82.5195 214.2311 0218367  90.0908 272.5215 12.79708315 49342
ORBITAL FACTORY 2 (OF-2)
1 45113U 19071C   21015.81970238  .00001399  00000-0  52333-4 0  9991
2 45113  51.6432  56.9092 0012929 101.4108 258.8327 15.34593013 53722
HUSKYSAT-1              
1 45119U 19071J   21015.83834669  .00002092  00000-0  72361-4 0  9990
2 45119  51.6430  56.2828 0012257  98.1891 262.0482 15.34713421 53727
BY70-2                  
1 45857U 20042B   21016.46929231  .00000992  00000-0  14927-3 0  9999
2 45857  97.9986  93.7621 0010191 349.7548  10.3461 14.76624200 29119
SALSAT                  
1 46495U 20068K   21015.91047666  .00000678  00000-0  54413-4 0  9994
2 46495  97.6795 314.4466 0015939 228.1178 131.8690 15.03314449 16411
BY70-3                  
1 46839U 20079N   21016.49141728  .00002520  00000-0  82300-4 0  9990
2 46839  97.2590  93.3527 0008304  42.4314 328.8550 15.32651563 10926
OSCAR 7 (AO-7)          
1 07530U 74089B   21015.90011920 -.00000047  00000-0 -10862-4 0  9998
2 07530 101.8335 350.6949 0012150 316.5168  58.4297 12.53646919112615
